COSMOS 2456 [GLONASS-M] 
1 36111U 09070A   26095.82555385  .00000002  00000+0  00000+0 0  9991
2 36111  64.9703  73.4386 0006488 311.3233 231.2999  2.13103622126886
COSMOS 2457 [GLONASS-M] 
1 36112U 09070B   26094.01031916 -.00000008  00000+0  00000+0 0  9998
2 36112  64.9547  73.3459 0001490 193.6954 164.4243  2.13100936126842
COSMOS 2460 [GLONASS-M] 
1 36402U 10007C   26094.24975299 -.00000046  00000+0  00000+0 0  9990
2 36402  65.4623 316.9695 0002181  49.5361 133.5187  2.13106066125159
NAVSTAR 65 (USA 213)    
1 36585U 10022A   26095.16725920  .00000006  00000+0  00000+0 0  9990
2 36585  54.2820 211.5026 0126957  66.0332 295.6559  2.00558893116130
BEIDOU-2 IGSO-1         
1 36828U 10036A   26086.63883915 -.00000150  00000+0  00000+0 0  9997
2 36828  54.2909 163.6978 0057461 222.7538 133.1758  1.00295665 57273
BEIDOU-2 G4             
1 37210U 10057A   26095.84802053 -.00000109  00000+0  00000+0 0  9997
2 37210   3.4678  69.3535 0007147 215.5315  14.5514  1.00271657 56566
BEIDOU-2 IGSO-2         
1 37256U 10068A   26086.44836399 -.00000175  00000+0  00000+0 0  9998
2 37256  47.6922 272.8379 0048070 212.2935 326.6285  1.00251076 55976
BEIDOU-2 IGSO-3         
1 37384U 11013A   26095.76662249 -.00000184  00000+0  00000+0 0  9997
2 37384  62.3151  40.8354 0034285 189.3490 347.5113  1.00285893 54936
GSAT-8                  
1 37605U 11022A   26095.75587576  .00000087  00000+0  00000+0 0  9992
2 37605   1.9438  82.6919 0005583 225.0902 213.4397  1.00272319 52498
BEIDOU-2 IGSO-4         
1 37763U 11038A   26087.66258249 -.00000109  00000+0  00000+0 0  9993
2 37763  54.5871 166.4040 0156581 231.4212 120.2889  1.00260433 53838
GSAT0101 (GALILEO-PFM)  
1 37846U 11060A   26095.11194268 -.00000093  00000+0  00000+0 0  9991
2 37846  57.0168 343.7451 0004096  18.3596 341.7021  1.70475898 89874
GSAT0102 (GALILEO-FM2)  
1 37847U 11060B   26094.16007975 -.00000095  00000+0  00000+0 0  9996
2 37847  57.0179 343.7712 0004811   9.1881 172.2383  1.70475892 89868
COSMOS 2476 [GLONASS-M] 
1 37867U 11064A   26095.24142771  .00000001  00000+0  00000+0 0  9992
2 37867  65.2297  75.3322 0024787 242.3666 120.4755  2.13103713112215
COSMOS 2477 [GLONASS-M] 
1 37868U 11064B   26095.70794891  .00000005  00000+0  00000+0 0  9994
2 37868  65.2366  75.3952 0021866 243.9352 297.3673  2.13102910112217
COSMOS 2475 [GLONASS-M] 
1 37869U 11064C   26092.47987737 -.00000001  00000+0  00000+0 0  9996
2 37869  65.2414  75.5251 0027830 255.4078 284.8639  2.13101572112155
BEIDOU-2 IGSO-5         
1 37948U 11073A   26093.97039089 -.00000174  00000+0  00000+0 0  9999
2 37948  47.8149 272.4589 0109539 220.8427 142.8662  1.00265759 52398
LUCH-5A                 
1 37951U 11074B   26095.70673557 -.00000046  00000+0  00000+0 0  9999
2 37951   8.5703  74.8592 0003142 287.6374 252.8557  1.00271539 52326
