[{"OBJECT_NAME":"COSMOS 2456 (730)","OBJECT_ID":"2009-070A","EPOCH":"2026-04-05T19:48:47.852640","MEAN_MOTION":2.13103622,"ECCENTRICITY":0.0006488,"INCLINATION":64.9703,"RA_OF_ASC_NODE":73.4386,"ARG_OF_PERICENTER":311.3233,"MEAN_ANOMALY":231.2999,"EPHEMERIS_TYPE":0,"CLASSIFICATION_TYPE":"U","NORAD_CAT_ID":36111,"ELEMENT_SET_NO":999,"REV_AT_EPOCH":12688,"BSTAR":0,"MEAN_MOTION_DOT":2.0e-8,"MEAN_MOTION_DDOT":0},{"OBJECT_NAME":"COSMOS 2457 (733)","OBJECT_ID":"2009-070B","EPOCH":"2026-04-04T00:14:51.575424","MEAN_MOTION":2.13100936,"ECCENTRICITY":0.00014904,"INCLINATION":64.9547,"RA_OF_ASC_NODE":73.3459,"ARG_OF_PERICENTER":193.6954,"MEAN_ANOMALY":164.4243,"EPHEMERIS_TYPE":0,"CLASSIFICATION_TYPE":"U","NORAD_CAT_ID":36112,"ELEMENT_SET_NO":999,"REV_AT_EPOCH":12684,"BSTAR":0,"MEAN_MOTION_DOT":-8.0e-8,"MEAN_MOTION_DDOT":0},{"OBJECT_NAME":"COSMOS 2460 (732)","OBJECT_ID":"2010-007C","EPOCH":"2026-04-04T05:59:38.658336","MEAN_MOTION":2.13106066,"ECCENTRICITY":0.00021813,"INCLINATION":65.4623,"RA_OF_ASC_NODE":316.9695,"ARG_OF_PERICENTER":49.5361,"MEAN_ANOMALY":133.5187,"EPHEMERIS_TYPE":0,"CLASSIFICATION_TYPE":"U","NORAD_CAT_ID":36402,"ELEMENT_SET_NO":999,"REV_AT_EPOCH":12515,"BSTAR":0,"MEAN_MOTION_DOT":-4.6e-7,"MEAN_MOTION_DDOT":0},{"OBJECT_NAME":"GPS BIIF-1  (PRN 25)","OBJECT_ID":"2010-022A","EPOCH":"2026-04-05T04:00:51.194880","MEAN_MOTION":2.00558893,"ECCENTRICITY":0.01269575,"INCLINATION":54.282,"RA_OF_ASC_NODE":211.5026,"ARG_OF_PERICENTER":66.0332,"MEAN_ANOMALY":295.6559,"EPHEMERIS_TYPE":0,"CLASSIFICATION_TYPE":"U","NORAD_CAT_ID":36585,"ELEMENT_SET_NO":999,"REV_AT_EPOCH":11613,"BSTAR":0,"MEAN_MOTION_DOT":6.0e-8,"MEAN_MOTION_DDOT":0},{"OBJECT_NAME":"BEIDOU-2 IGSO-1 (C06)","OBJECT_ID":"2010-036A","EPOCH":"2026-03-27T15:19:55.702560","MEAN_MOTION":1.00295665,"ECCENTRICITY":0.00574619,"INCLINATION":54.2909,"RA_OF_ASC_NODE":163.6978,"ARG_OF_PERICENTER":222.7538,"MEAN_ANOMALY":133.1758,"EPHEMERIS_TYPE":0,"CLASSIFICATION_TYPE":"U","NORAD_CAT_ID":36828,"ELEMENT_SET_NO":999,"REV_AT_EPOCH":5727,"BSTAR":0,"MEAN_MOTION_DOT":-1.5e-6,"MEAN_MOTION_DDOT":0},{"OBJECT_NAME":"BEIDOU-2 G4 (C04)","OBJECT_ID":"2010-057A","EPOCH":"2026-04-05T20:21:08.973792","MEAN_MOTION":1.00271657,"ECCENTRICITY":0.0007147,"INCLINATION":3.4678,"RA_OF_ASC_NODE":69.3535,"ARG_OF_PERICENTER":215.5315,"MEAN_ANOMALY":14.5514,"EPHEMERIS_TYPE":0,"CLASSIFICATION_TYPE":"U","NORAD_CAT_ID":37210,"ELEMENT_SET_NO":999,"REV_AT_EPOCH":5656,"BSTAR":0,"MEAN_MOTION_DOT":-1.09e-6,"MEAN_MOTION_DDOT":0},{"OBJECT_NAME":"BEIDOU-2 IGSO-2 (C07)","OBJECT_ID":"2010-068A","EPOCH":"2026-03-27T10:45:38.648736","MEAN_MOTION":1.00251076,"ECCENTRICITY":0.00480708,"INCLINATION":47.6922,"RA_OF_ASC_NODE":272.8379,"ARG_OF_PERICENTER":212.2935,"MEAN_ANOMALY":326.6285,"EPHEMERIS_TYPE":0,"CLASSIFICATION_TYPE":"U","NORAD_CAT_ID":37256,"ELEMENT_SET_NO":999,"REV_AT_EPOCH":5597,"BSTAR":0,"MEAN_MOTION_DOT":-1.75e-6,"MEAN_MOTION_DDOT":0},{"OBJECT_NAME":"BEIDOU-2 IGSO-3 (C08)","OBJECT_ID":"2011-013A","EPOCH":"2026-04-05T18:23:56.183136","MEAN_MOTION":1.00285893,"ECCENTRICITY":0.0034285,"INCLINATION":62.3151,"RA_OF_ASC_NODE":40.8354,"ARG_OF_PERICENTER":189.349,"MEAN_ANOMALY":347.5113,"EPHEMERIS_TYPE":0,"CLASSIFICATION_TYPE":"U","NORAD_CAT_ID":37384,"ELEMENT_SET_NO":999,"REV_AT_EPOCH":5493,"BSTAR":0,"MEAN_MOTION_DOT":-1.84e-6,"MEAN_MOTION_DDOT":0},{"OBJECT_NAME":"GSAT-8 (GAGAN/PRN 127)","OBJECT_ID":"2011-022A","EPOCH":"2026-04-05T18:08:27.665664","MEAN_MOTION":1.00272319,"ECCENTRICITY":0.0005583,"INCLINATION":1.9438,"RA_OF_ASC_NODE":82.6919,"ARG_OF_PERICENTER":225.0902,"MEAN_ANOMALY":213.4397,"EPHEMERIS_TYPE":0,"CLASSIFICATION_TYPE":"U","NORAD_CAT_ID":37605,"ELEMENT_SET_NO":999,"REV_AT_EPOCH":5249,"BSTAR":0,"MEAN_MOTION_DOT":8.7e-7,"MEAN_MOTION_DDOT":0},{"OBJECT_NAME":"BEIDOU-2 IGSO-4 (C09)","OBJECT_ID":"2011-038A","EPOCH":"2026-03-28T15:54:07.127136","MEAN_MOTION":1.00260433,"ECCENTRICITY":0.0156581,"INCLINATION":54.5871,"RA_OF_ASC_NODE":166.404,"ARG_OF_PERICENTER":231.4212,"MEAN_ANOMALY":120.2889,"EPHEMERIS_TYPE":0,"CLASSIFICATION_TYPE":"U","NORAD_CAT_ID":37763,"ELEMENT_SET_NO":999,"REV_AT_EPOCH":5383,"BSTAR":0,"MEAN_MOTION_DOT":-1.09e-6,"MEAN_MOTION_DDOT":0},{"OBJECT_NAME":"GSAT0101 (GALILEO-PFM)","OBJECT_ID":"2011-060A","EPOCH":"2026-04-05T02:41:11.847552","MEAN_MOTION":1.70475898,"ECCENTRICITY":0.00040961,"INCLINATION":57.0168,"RA_OF_ASC_NODE":343.7451,"ARG_OF_PERICENTER":18.3596,"MEAN_ANOMALY":341.7021,"EPHEMERIS_TYPE":0,"CLASSIFICATION_TYPE":"U","NORAD_CAT_ID":37846,"ELEMENT_SET_NO":999,"REV_AT_EPOCH":8987,"BSTAR":0,"MEAN_MOTION_DOT":-9.3e-7,"MEAN_MOTION_DDOT":0},{"OBJECT_NAME":"GSAT0102 (GALILEO-FM2)","OBJECT_ID":"2011-060B","EPOCH":"2026-04-04T03:50:30.890400","MEAN_MOTION":1.70475892,"ECCENTRICITY":0.00048118,"INCLINATION":57.0179,"RA_OF_ASC_NODE":343.7712,"ARG_OF_PERICENTER":9.1881,"MEAN_ANOMALY":172.2383,"EPHEMERIS_TYPE":0,"CLASSIFICATION_TYPE":"U","NORAD_CAT_ID":37847,"ELEMENT_SET_NO":999,"REV_AT_EPOCH":8986,"BSTAR":0,"MEAN_MOTION_DOT":-9.5e-7,"MEAN_MOTION_DDOT":0},{"OBJECT_NAME":"COSMOS 2476 (744)","OBJECT_ID":"2011-064A","EPOCH":"2026-04-05T05:47:39.354144","MEAN_MOTION":2.13103713,"ECCENTRICITY":0.0024787,"INCLINATION":65.2297,"RA_OF_ASC_NODE":75.3322,"ARG_OF_PERICENTER":242.3666,"MEAN_ANOMALY":120.4755,"EPHEMERIS_TYPE":0,"CLASSIFICATION_TYPE":"U","NORAD_CAT_ID":37867,"ELEMENT_SET_NO":999,"REV_AT_EPOCH":11221,"BSTAR":0,"MEAN_MOTION_DOT":1.0e-8,"MEAN_MOTION_DDOT":0},{"OBJECT_NAME":"COSMOS 2477 (745)","OBJECT_ID":"2011-064B","EPOCH":"2026-04-05T16:59:26.785824","MEAN_MOTION":2.1310291,"ECCENTRICITY":0.0021866,"INCLINATION":65.2366,"RA_OF_ASC_NODE":75.3952,"ARG_OF_PERICENTER":243.9352,"MEAN_ANOMALY":297.3673,"EPHEMERIS_TYPE":0,"CLASSIFICATION_TYPE":"U","NORAD_CAT_ID":37868,"ELEMENT_SET_NO":999,"REV_AT_EPOCH":11221,"BSTAR":0,"MEAN_MOTION_DOT":5.0e-8,"MEAN_MOTION_DDOT":0},{"OBJECT_NAME":"COSMOS 2475 (743)","OBJECT_ID":"2011-064C","EPOCH":"2026-04-02T11:31:01.404768","MEAN_MOTION":2.13101572,"ECCENTRICITY":0.00278306,"INCLINATION":65.2414,"RA_OF_ASC_NODE":75.5251,"ARG_OF_PERICENTER":255.4078,"MEAN_ANOMALY":284.8639,"EPHEMERIS_TYPE":0,"CLASSIFICATION_TYPE":"U","NORAD_CAT_ID":37869,"ELEMENT_SET_NO":999,"REV_AT_EPOCH":11215,"BSTAR":0,"MEAN_MOTION_DOT":-1.0e-8,"MEAN_MOTION_DDOT":0},{"OBJECT_NAME":"BEIDOU-2 IGSO-5 (C10)","OBJECT_ID":"2011-073A","EPOCH":"2026-04-03T23:17:21.772896","MEAN_MOTION":1.00265759,"ECCENTRICITY":0.01095393,"INCLINATION":47.8149,"RA_OF_ASC_NODE":272.4589,"ARG_OF_PERICENTER":220.8427,"MEAN_ANOMALY":142.8662,"EPHEMERIS_TYPE":0,"CLASSIFICATION_TYPE":"U","NORAD_CAT_ID":37948,"ELEMENT_SET_NO":999,"REV_AT_EPOCH":5239,"BSTAR":0,"MEAN_MOTION_DOT":-1.74e-6,"MEAN_MOTION_DDOT":0},{"OBJECT_NAME":"LUCH 5A (SDCM/PRN 140)","OBJECT_ID":"2011-074B","EPOCH":"2026-04-05T16:57:41.953248","MEAN_MOTION":1.00271539,"ECCENTRICITY":0.0003142,"INCLINATION":8.5703,"RA_OF_ASC_NODE":74.8592,"ARG_OF_PERICENTER":287.6374,"MEAN_ANOMALY":252.8557,"EPHEMERIS_TYPE":0,"CLASSIFICATION_TYPE":"U","NORAD_CAT_ID":37951,"ELEMENT_SET_NO":999,"REV_AT_EPOCH":5232,"BSTAR":0,"MEAN_MOTION_DOT":-4.6e-7,"MEAN_MOTION_DDOT":0}]
